STARLETTE               
1 07646U 75010A   16215.55359340 -.00000137  00000-0  59676-5 0  9995
2 07646  49.8251 295.9783 0205761  32.2748 329.0547 13.82300855 95777
LAGEOS 1                
1 08820U 76039A   16215.87739644  .00000008  00000-0  00000+0 0  9993
2 08820 109.8527  24.3446 0044578 353.8898   9.8721  6.38664765683316
AJISAI (EGS)            
1 16908U 86061A   16216.20356657 -.00000100  00000-0 -15338-4 0  9992
2 16908  50.0101  72.2951 0011480   5.6714 158.3808 12.44483940 31844
LAGEOS 2                
1 22195U 92070B   16214.91080286 -.00000009  00000-0  00000-0 0  9995
2 22195  52.6700  25.8402 0137748  50.5232 188.4317  6.47293823562165
STELLA                  
1 22824U 93061B   16215.54678885 -.00000050  00000-0 -20903-5 0  9999
2 22824  98.7694 164.5020 0005339 250.2304 213.7876 14.27364046190558
GRACE-1                 
1 27391U 02012A   16215.89018394  .00007601  00000-0  61163-4 0  9999
2 27391  88.9951   7.0936 0003270 245.4939 236.6014 15.70729656807361
GRACE-2                 
1 27392U 02012B   16215.86889035  .00007619  00000-0  61314-4 0  9992
2 27392  88.9959   7.1875 0003253 245.0497 115.0438 15.70728826807356
LARES                   
1 38077U 12006A   16215.71861981 -.00000022  00000-0  10000-3 0  9999
2 38077  69.4933 330.7131 0010470 216.1824 143.8495 12.54930669204819
